[Satellite]
VERSION=1.1
NAME=MOLNIYA 1-49
NICKNAME=MOLNIYA 1-49
TLE1=1 12156U 81009A   15054.62826992 -.00000606  00000-0  00000+0 0  9994
TLE2=2 12156  64.5665 167.6336 6595142 256.9433 222.0230  2.05707594166581
